[{"OBJECT_NAME":"STARLINK-32090","OBJECT_ID":"2024-086K","EPOCH":"2025-07-28T10:56:15.716544","MEAN_MOTION":15.27573721,"ECCENTRICITY":0.0001275,"INCLINATION":43,"RA_OF_ASC_NODE":250.1218,"ARG_OF_PERICENTER":272.5737,"MEAN_ANOMALY":87.4968,"EPHEMERIS_TYPE":0,"CLASSIFICATION_TYPE":"U","NORAD_CAT_ID":59691,"ELEMENT_SET_NO":999,"REV_AT_EPOCH":6977,"BSTAR":4.1439e-5,"MEAN_MOTION_DOT":8.78e-6,"MEAN_MOTION_DDOT":0},{"OBJECT_NAME":"STARLINK-32088","OBJECT_ID":"2024-086M","EPOCH":"2025-07-28T09:01:46.985664","MEAN_MOTION":15.27572797,"ECCENTRICITY":0.0001123,"INCLINATION":42.9987,"RA_OF_ASC_NODE":239.1466,"ARG_OF_PERICENTER":271.5417,"MEAN_ANOMALY":88.5306,"EPHEMERIS_TYPE":0,"CLASSIFICATION_TYPE":"U","NORAD_CAT_ID":59693,"ELEMENT_SET_NO":999,"REV_AT_EPOCH":6989,"BSTAR":-9.6376e-6,"MEAN_MOTION_DOT":-5.27e-6,"MEAN_MOTION_DDOT":0},{"OBJECT_NAME":"STARLINK-32107","OBJECT_ID":"2024-086N","EPOCH":"2025-07-28T13:46:46.401024","MEAN_MOTION":15.27576026,"ECCENTRICITY":0.0001198,"INCLINATION":43,"RA_OF_ASC_NODE":245.8318,"ARG_OF_PERICENTER":265.6194,"MEAN_ANOMALY":94.452,"EPHEMERIS_TYPE":0,"CLASSIFICATION_TYPE":"U","NORAD_CAT_ID":59694,"ELEMENT_SET_NO":999,"REV_AT_EPOCH":6983,"BSTAR":1.2194e-5,"MEAN_MOTION_DOT":7.4e-7,"MEAN_MOTION_DDOT":0},{"OBJECT_NAME":"STARLINK-32104","OBJECT_ID":"2024-086P","EPOCH":"2025-07-28T09:03:07.761888","MEAN_MOTION":15.2757754,"ECCENTRICITY":0.0001483,"INCLINATION":43.0005,"RA_OF_ASC_NODE":243.405,"ARG_OF_PERICENTER":272.2119,"MEAN_ANOMALY":87.8563,"EPHEMERIS_TYPE":0,"CLASSIFICATION_TYPE":"U","NORAD_CAT_ID":59695,"ELEMENT_SET_NO":999,"REV_AT_EPOCH":6984,"BSTAR":1.4454e-5,"MEAN_MOTION_DOT":1.36e-6,"MEAN_MOTION_DDOT":0},{"OBJECT_NAME":"STARLINK-32094","OBJECT_ID":"2024-086Q","EPOCH":"2025-07-28T10:43:58.351296","MEAN_MOTION":15.27596882,"ECCENTRICITY":0.0001537,"INCLINATION":43.0018,"RA_OF_ASC_NODE":246.5991,"ARG_OF_PERICENTER":283.5963,"MEAN_ANOMALY":76.4717,"EPHEMERIS_TYPE":0,"CLASSIFICATION_TYPE":"U","NORAD_CAT_ID":59696,"ELEMENT_SET_NO":999,"REV_AT_EPOCH":6981,"BSTAR":0.00011797,"MEAN_MOTION_DOT":2.987e-5,"MEAN_MOTION_DDOT":0},{"OBJECT_NAME":"STARLINK-32099","OBJECT_ID":"2024-086R","EPOCH":"2025-07-28T12:54:57.041280","MEAN_MOTION":15.27577159,"ECCENTRICITY":0.0001334,"INCLINATION":43.0005,"RA_OF_ASC_NODE":245.5649,"ARG_OF_PERICENTER":281.4177,"MEAN_ANOMALY":78.6524,"EPHEMERIS_TYPE":0,"CLASSIFICATION_TYPE":"U","NORAD_CAT_ID":59697,"ELEMENT_SET_NO":999,"REV_AT_EPOCH":6975,"BSTAR":9.7156e-5,"MEAN_MOTION_DOT":2.412e-5,"MEAN_MOTION_DDOT":0},{"OBJECT_NAME":"STARLINK-32096","OBJECT_ID":"2024-086S","EPOCH":"2025-07-28T10:07:00.445152","MEAN_MOTION":15.27579716,"ECCENTRICITY":0.0001328,"INCLINATION":43.0031,"RA_OF_ASC_NODE":246.409,"ARG_OF_PERICENTER":285.2119,"MEAN_ANOMALY":74.8586,"EPHEMERIS_TYPE":0,"CLASSIFICATION_TYPE":"U","NORAD_CAT_ID":59698,"ELEMENT_SET_NO":999,"REV_AT_EPOCH":6981,"BSTAR":-0.00010263,"MEAN_MOTION_DOT":-3.085e-5,"MEAN_MOTION_DDOT":0},{"OBJECT_NAME":"STARLINK-32102","OBJECT_ID":"2024-086T","EPOCH":"2025-07-28T06:47:35.520000","MEAN_MOTION":15.2757158,"ECCENTRICITY":0.0001037,"INCLINATION":43.0026,"RA_OF_ASC_NODE":247.0916,"ARG_OF_PERICENTER":279.1622,"MEAN_ANOMALY":80.9113,"EPHEMERIS_TYPE":0,"CLASSIFICATION_TYPE":"U","NORAD_CAT_ID":59699,"ELEMENT_SET_NO":999,"REV_AT_EPOCH":6979,"BSTAR":9.6265e-6,"MEAN_MOTION_DOT":3.0e-8,"MEAN_MOTION_DDOT":0},{"OBJECT_NAME":"STARLINK-32092","OBJECT_ID":"2024-086U","EPOCH":"2025-07-28T10:21:48.551616","MEAN_MOTION":15.27575431,"ECCENTRICITY":0.0001463,"INCLINATION":43.0021,"RA_OF_ASC_NODE":246.4827,"ARG_OF_PERICENTER":279.0738,"MEAN_ANOMALY":80.9948,"EPHEMERIS_TYPE":0,"CLASSIFICATION_TYPE":"U","NORAD_CAT_ID":59700,"ELEMENT_SET_NO":999,"REV_AT_EPOCH":6981,"BSTAR":-3.5312e-6,"MEAN_MOTION_DOT":-3.59e-6,"MEAN_MOTION_DDOT":0},{"OBJECT_NAME":"STARLINK-32093","OBJECT_ID":"2024-086V","EPOCH":"2025-07-28T10:18:06.641856","MEAN_MOTION":15.27570207,"ECCENTRICITY":0.0001582,"INCLINATION":43.0029,"RA_OF_ASC_NODE":246.4618,"ARG_OF_PERICENTER":269.835,"MEAN_ANOMALY":90.232,"EPHEMERIS_TYPE":0,"CLASSIFICATION_TYPE":"U","NORAD_CAT_ID":59701,"ELEMENT_SET_NO":999,"REV_AT_EPOCH":6981,"BSTAR":-1.4674e-5,"MEAN_MOTION_DOT":-6.66e-6,"MEAN_MOTION_DDOT":0},{"OBJECT_NAME":"STARLINK-32087","OBJECT_ID":"2024-086W","EPOCH":"2025-07-28T13:09:45.746496","MEAN_MOTION":15.27579757,"ECCENTRICITY":0.0001212,"INCLINATION":43.0029,"RA_OF_ASC_NODE":245.6408,"ARG_OF_PERICENTER":278.4828,"MEAN_ANOMALY":81.5887,"EPHEMERIS_TYPE":0,"CLASSIFICATION_TYPE":"U","NORAD_CAT_ID":59702,"ELEMENT_SET_NO":999,"REV_AT_EPOCH":6983,"BSTAR":-3.463e-5,"MEAN_MOTION_DOT":-1.215e-5,"MEAN_MOTION_DDOT":0},{"OBJECT_NAME":"STARLINK-32086","OBJECT_ID":"2024-086X","EPOCH":"2025-07-28T19:00:29.200896","MEAN_MOTION":15.27578319,"ECCENTRICITY":9.84e-5,"INCLINATION":42.9988,"RA_OF_ASC_NODE":244.0311,"ARG_OF_PERICENTER":274.0492,"MEAN_ANOMALY":86.0247,"EPHEMERIS_TYPE":0,"CLASSIFICATION_TYPE":"U","NORAD_CAT_ID":59703,"ELEMENT_SET_NO":999,"REV_AT_EPOCH":6973,"BSTAR":-1.9017e-5,"MEAN_MOTION_DOT":-7.85e-6,"MEAN_MOTION_DDOT":0},{"OBJECT_NAME":"STARLINK-32098","OBJECT_ID":"2024-086Y","EPOCH":"2025-07-28T10:32:54.454560","MEAN_MOTION":15.27577378,"ECCENTRICITY":0.0001368,"INCLINATION":43.0009,"RA_OF_ASC_NODE":246.5455,"ARG_OF_PERICENTER":261.8579,"MEAN_ANOMALY":98.2118,"EPHEMERIS_TYPE":0,"CLASSIFICATION_TYPE":"U","NORAD_CAT_ID":59704,"ELEMENT_SET_NO":999,"REV_AT_EPOCH":6981,"BSTAR":1.4904e-5,"MEAN_MOTION_DOT":1.48e-6,"MEAN_MOTION_DDOT":0},{"OBJECT_NAME":"STARLINK-11107 [DTC]","OBJECT_ID":"2024-088A","EPOCH":"2025-07-28T14:51:08.139744","MEAN_MOTION":15.69707369,"ECCENTRICITY":7.5e-5,"INCLINATION":53.1595,"RA_OF_ASC_NODE":350.5573,"ARG_OF_PERICENTER":64.8759,"MEAN_ANOMALY":295.2337,"EPHEMERIS_TYPE":0,"CLASSIFICATION_TYPE":"U","NORAD_CAT_ID":59708,"ELEMENT_SET_NO":999,"REV_AT_EPOCH":7106,"BSTAR":3.8397e-6,"MEAN_MOTION_DOT":-1.23e-6,"MEAN_MOTION_DDOT":0},{"OBJECT_NAME":"STARLINK-11088 [DTC]","OBJECT_ID":"2024-088B","EPOCH":"2025-07-28T16:08:50.162784","MEAN_MOTION":15.69726871,"ECCENTRICITY":8.11e-5,"INCLINATION":53.1569,"RA_OF_ASC_NODE":350.9049,"ARG_OF_PERICENTER":88.8301,"MEAN_ANOMALY":271.281,"EPHEMERIS_TYPE":0,"CLASSIFICATION_TYPE":"U","NORAD_CAT_ID":59709,"ELEMENT_SET_NO":999,"REV_AT_EPOCH":7098,"BSTAR":0.00028135,"MEAN_MOTION_DOT":0.00033658,"MEAN_MOTION_DDOT":0},{"OBJECT_NAME":"STARLINK-11092 [DTC]","OBJECT_ID":"2024-088C","EPOCH":"2025-07-28T16:01:45.841152","MEAN_MOTION":15.69713094,"ECCENTRICITY":3.53e-5,"INCLINATION":53.1578,"RA_OF_ASC_NODE":350.8703,"ARG_OF_PERICENTER":76.1935,"MEAN_ANOMALY":283.9122,"EPHEMERIS_TYPE":0,"CLASSIFICATION_TYPE":"U","NORAD_CAT_ID":59710,"ELEMENT_SET_NO":999,"REV_AT_EPOCH":7097,"BSTAR":5.898e-6,"MEAN_MOTION_DOT":1.27e-6,"MEAN_MOTION_DDOT":0},{"OBJECT_NAME":"STARLINK-11082 [DTC]","OBJECT_ID":"2024-088D","EPOCH":"2025-07-28T15:54:42.386976","MEAN_MOTION":15.69707501,"ECCENTRICITY":7.13e-5,"INCLINATION":53.1588,"RA_OF_ASC_NODE":350.8377,"ARG_OF_PERICENTER":98.3015,"MEAN_ANOMALY":261.8084,"EPHEMERIS_TYPE":0,"CLASSIFICATION_TYPE":"U","NORAD_CAT_ID":59711,"ELEMENT_SET_NO":999,"REV_AT_EPOCH":7097,"BSTAR":4.5323e-6,"MEAN_MOTION_DOT":-3.9e-7,"MEAN_MOTION_DDOT":0}]
