STARLINK-32090          
1 59691U 24086K   25209.45573746  .00000878  00000+0  41439-4 0  9996
2 59691  43.0000 250.1218 0001275 272.5737  87.4968 15.27573721 69777
STARLINK-32088          
1 59693U 24086M   25209.37623826 -.00000527  00000+0 -96376-5 0  9998
2 59693  42.9987 239.1466 0001123 271.5417  88.5306 15.27572797 69892
STARLINK-32107          
1 59694U 24086N   25209.57414816  .00000074  00000+0  12194-4 0  9998
2 59694  43.0000 245.8318 0001198 265.6194  94.4520 15.27576026 69836
STARLINK-32104          
1 59695U 24086P   25209.37717317  .00000136  00000+0  14454-4 0  9999
2 59695  43.0005 243.4050 0001483 272.2119  87.8563 15.27577540 69843
STARLINK-32094          
1 59696U 24086Q   25209.44720314  .00002987  00000+0  11797-3 0  9991
2 59696  43.0018 246.5991 0001537 283.5963  76.4717 15.27596882 69810
STARLINK-32099          
1 59697U 24086R   25209.53816020  .00002412  00000+0  97156-4 0  9999
2 59697  43.0005 245.5649 0001334 281.4177  78.6524 15.27577159 69754
STARLINK-32096          
1 59698U 24086S   25209.42153293 -.00003085  00000+0 -10263-3 0  9996
2 59698  43.0031 246.4090 0001328 285.2119  74.8586 15.27579716 69819
STARLINK-32102          
1 59699U 24086T   25209.28305000  .00000003  00000+0  96265-5 0  9999
2 59699  43.0026 247.0916 0001037 279.1622  80.9113 15.27571580 69798
STARLINK-32092          
1 59700U 24086U   25209.43181194 -.00000359  00000+0 -35312-5 0  9997
2 59700  43.0021 246.4827 0001463 279.0738  80.9948 15.27575431 69818
STARLINK-32093          
1 59701U 24086V   25209.42924354 -.00000666  00000+0 -14674-4 0  9998
2 59701  43.0029 246.4618 0001582 269.8350  90.2320 15.27570207 69818
STARLINK-32087          
1 59702U 24086W   25209.54844614 -.00001215  00000+0 -34630-4 0  9997
2 59702  43.0029 245.6408 0001212 278.4828  81.5887 15.27579757 69835
STARLINK-32086          
1 59703U 24086X   25209.79200464 -.00000785  00000+0 -19017-4 0  9997
2 59703  42.9988 244.0311 0000984 274.0492  86.0247 15.27578319 69730
STARLINK-32098          
1 59704U 24086Y   25209.43951915  .00000148  00000+0  14904-4 0  9994
2 59704  43.0009 246.5455 0001368 261.8579  98.2118 15.27577378 69815
STARLINK-11107 [DTC]    
1 59708U 24088A   25209.61884421 -.00000123  00000+0  38397-5 0  9994
2 59708  53.1595 350.5573 0000750  64.8759 295.2337 15.69707369 71066
STARLINK-11088 [DTC]    
1 59709U 24088B   25209.67280281  .00033658  00000+0  28135-3 0  9990
2 59709  53.1569 350.9049 0000811  88.8301 271.2810 15.69726871 70986
STARLINK-11092 [DTC]    
1 59710U 24088C   25209.66789168  .00000127  00000+0  58980-5 0  9997
2 59710  53.1578 350.8703 0000353  76.1935 283.9122 15.69713094 70976
STARLINK-11082 [DTC]    
1 59711U 24088D   25209.66299059 -.00000039  00000+0  45323-5 0  9993
2 59711  53.1588 350.8377 0000713  98.3015 261.8084 15.69707501 70978
